{"type": "FeatureCollection", "features": [ {"type": "Feature", "properties": {"norad_id": 38953, "name": "BEIDOU-2 G6 (C02)", "group": "beidou", "lat": -3.957892320716393, "lon": -7.397893531989327, "alt_km": 35753.86646900682, "timestamp": "2025-12-25T11:37:44.700526+00:00", "meta": {"OBJECT_NAME": "BEIDOU-2 G6 (C02)", "OBJECT_ID": "2012-059A", "EPOCH": "2025-12-25T01:00:51.717600", "MEAN_MOTION": 1.00274262, "ECCENTRICITY": 0.0007997, "INCLINATION": 3.9787, "RA_OF_ASC_NODE": 75.3898, "ARG_OF_PERICENTER": 294.4199, "MEAN_ANOMALY": 183.1448, "EPHEMERIS_TYPE": 0, "CLASSIFICATION_TYPE": "U", "NORAD_CAT_ID": 38953, "ELEMENT_SET_NO": 999, "REV_AT_EPOCH": 4816, "BSTAR": 0, "MEAN_MOTION_DOT": -1.55e-06, "MEAN_MOTION_DDOT": 0}, "tle": {"line1": "1 38953U 12059A   25359.04226525 -.00000155  00000+0  00000+0 0  9995", "line2": "2 38953   3.9787  75.3898 0007997 294.4199 183.1448  1.00274262 48166"}}, "geometry": {"type": "Point", "coordinates": [-7.397893531989327, -3.957892320716393]}}, {"type": "Feature", "properties": {"norad_id": 40549, "name": "BEIDOU-3S IGSO-1S (C31)", "group": "beidou", "lat": 43.86860290277264, "lon": -7.449138236251758, "alt_km": 35870.65674705203, "timestamp": "2025-12-25T11:37:44.700538+00:00", "meta": {"OBJECT_NAME": "BEIDOU-3S IGSO-1S (C31)", "OBJECT_ID": "2015-019A", "EPOCH": "2025-12-18T19:55:38.829792", "MEAN_MOTION": 1.00292047, "ECCENTRICITY": 0.0036331, "INCLINATION": 49.5404, "RA_OF_ASC_NODE": 297.6395, "ARG_OF_PERICENTER": 194.0028, "MEAN_ANOMALY": 349.3621, "EPHEMERIS_TYPE": 0, "CLASSIFICATION_TYPE": "U", "NORAD_CAT_ID": 40549, "ELEMENT_SET_NO": 999, "REV_AT_EPOCH": 3926, "BSTAR": 0, "MEAN_MOTION_DOT": -1.83e-06, "MEAN_MOTION_DDOT": 0}, "tle": {"line1": "1 40549U 15019A   25352.83031053 -.00000183  00000+0  00000+0 0  9999", "line2": "2 40549  49.5404 297.6395 0036331 194.0028 349.3621  1.00292047 39264"}}, "geometry": {"type": "Point", "coordinates": [-7.449138236251758, 43.86860290277264]}}, {"type": "Feature", "properties": {"norad_id": 40748, "name": "BEIDOU-3S M2S (C58)", "group": "beidou", "lat": 55.030013529218344, "lon": 36.58421467389449, "alt_km": 21554.746271791726, "timestamp": "2025-12-25T11:37:44.700551+00:00", "meta": {"OBJECT_NAME": "BEIDOU-3S M2S (C58)", "OBJECT_ID": "2015-037A", "EPOCH": "2025-12-24T19:32:44.901312", "MEAN_MOTION": 1.86229543, "ECCENTRICITY": 0.00118109, "INCLINATION": 55.028, "RA_OF_ASC_NODE": 308.0499, "ARG_OF_PERICENTER": 271.2412, "MEAN_ANOMALY": 88.6304, "EPHEMERIS_TYPE": 0, "CLASSIFICATION_TYPE": "U", "NORAD_CAT_ID": 40748, "ELEMENT_SET_NO": 999, "REV_AT_EPOCH": 7087, "BSTAR": 0, "MEAN_MOTION_DOT": -5.3e-07, "MEAN_MOTION_DDOT": 0}, "tle": {"line1": "1 40748U 15037A   25358.81440858 -.00000053  00000+0  00000+0 0  9997", "line2": "2 40748  55.0280 308.0499 0011810 271.2412  88.6304  1.86229543 70879"}}, "geometry": {"type": "Point", "coordinates": [36.58421467389449, 55.030013529218344]}}, {"type": "Feature", "properties": {"norad_id": 40749, "name": "BEIDOU-3S M1S (C57)", "group": "beidou", "lat": -47.40579589517873, "lon": -101.52219031178853, "alt_km": 21526.946077207893, "timestamp": "2025-12-25T11:37:44.700562+00:00", "meta": {"OBJECT_NAME": "BEIDOU-3S M1S (C57)", "OBJECT_ID": "2015-037B", "EPOCH": "2025-12-25T01:01:53.071104", "MEAN_MOTION": 1.86253893, "ECCENTRICITY": 0.000369, "INCLINATION": 55.0241, "RA_OF_ASC_NODE": 308.031, "ARG_OF_PERICENTER": 2.2616, "MEAN_ANOMALY": 357.7473, "EPHEMERIS_TYPE": 0, "CLASSIFICATION_TYPE": "U", "NORAD_CAT_ID": 40749, "ELEMENT_SET_NO": 999, "REV_AT_EPOCH": 7088, "BSTAR": 0, "MEAN_MOTION_DOT": -5.3e-07, "MEAN_MOTION_DDOT": 0}, "tle": {"line1": "1 40749U 15037B   25359.04297536 -.00000053  00000+0  00000+0 0  9997", "line2": "2 40749  55.0241 308.0310 0003690   2.2616 357.7473  1.86253893 70887"}}, "geometry": {"type": "Point", "coordinates": [-101.52219031178853, -47.40579589517873]}}, {"type": "Feature", "properties": {"norad_id": 40938, "name": "BEIDOU-3S IGSO-2S (C56)", "group": "beidou", "lat": 47.875052775808705, "lon": 10.170726462137807, "alt_km": 35761.73953767871, "timestamp": "2025-12-25T11:37:44.700574+00:00", "meta": {"OBJECT_NAME": "BEIDOU-3S IGSO-2S (C56)", "OBJECT_ID": "2015-053A", "EPOCH": "2025-12-24T16:58:26.308416", "MEAN_MOTION": 1.00267681, "ECCENTRICITY": 0.00606582, "INCLINATION": 49.4921, "RA_OF_ASC_NODE": 260.8653, "ARG_OF_PERICENTER": 188.5708, "MEAN_ANOMALY": 354.4321, "EPHEMERIS_TYPE": 0, "CLASSIFICATION_TYPE": "U", "NORAD_CAT_ID": 40938, "ELEMENT_SET_NO": 999, "REV_AT_EPOCH": 3760, "BSTAR": 0, "MEAN_MOTION_DOT": -1.14e-06, "MEAN_MOTION_DDOT": 0}, "tle": {"line1": "1 40938U 15053A   25358.70724894 -.00000114  00000+0  00000+0 0  9997", "line2": "2 40938  49.4921 260.8653 0060658 188.5708 354.4321  1.00267681 37606"}}, "geometry": {"type": "Point", "coordinates": [10.170726462137807, 47.875052775808705]}}, {"type": "Feature", "properties": {"norad_id": 41434, "name": "BEIDOU-2 IGSO-6 (C13)", "group": "beidou", "lat": -31.24397472320212, "lon": 19.276027411904888, "alt_km": 35795.27904772034, "timestamp": "2025-12-25T11:37:44.700586+00:00", "meta": {"OBJECT_NAME": "BEIDOU-2 IGSO-6 (C13)", "OBJECT_ID": "2016-021A", "EPOCH": "2025-12-25T02:21:14.682240", "MEAN_MOTION": 1.00290736, "ECCENTRICITY": 0.0060824, "INCLINATION": 59.9818, "RA_OF_ASC_NODE": 39.7747, "ARG_OF_PERICENTER": 230.5129, "MEAN_ANOMALY": 312.5474, "EPHEMERIS_TYPE": 0, "CLASSIFICATION_TYPE": "U", "NORAD_CAT_ID": 41434, "ELEMENT_SET_NO": 999, "REV_AT_EPOCH": 3573, "BSTAR": 0, "MEAN_MOTION_DOT": -1.35e-06, "MEAN_MOTION_DDOT": 0}, "tle": {"line1": "1 41434U 16021A   25359.09808660 -.00000135  00000+0  00000+0 0  9995", "line2": "2 41434  59.9818  39.7747 0060824 230.5129 312.5474  1.00290736 35739"}}, "geometry": {"type": "Point", "coordinates": [19.276027411904888, -31.24397472320212]}}, {"type": "Feature", "properties": {"norad_id": 41586, "name": "BEIDOU-2 G7 (C03)", "group": "beidou", "lat": -1.3435110922713442, "lon": 19.066873715461142, "alt_km": 35773.0297773793, "timestamp": "2025-12-25T11:37:44.700598+00:00", "meta": {"OBJECT_NAME": "BEIDOU-2 G7 (C03)", "OBJECT_ID": "2016-037A", "EPOCH": "2025-12-25T01:25:38.455104", "MEAN_MOTION": 1.00268771, "ECCENTRICITY": 0.0005203, "INCLINATION": 1.7852, "RA_OF_ASC_NODE": 67.8927, "ARG_OF_PERICENTER": 0.9679, "MEAN_ANOMALY": 156.8036, "EPHEMERIS_TYPE": 0, "CLASSIFICATION_TYPE": "U", "NORAD_CAT_ID": 41586, "ELEMENT_SET_NO": 999, "REV_AT_EPOCH": 514, "BSTAR": 0, "MEAN_MOTION_DOT": -3.32e-06, "MEAN_MOTION_DDOT": 0}, "tle": {"line1": "1 41586U 16037A   25359.05947286 -.00000332  00000+0  00000+0 0  9993", "line2": "2 41586   1.7852  67.8927 0005203   0.9679 156.8036  1.00268771  5140"}}, "geometry": {"type": "Point", "coordinates": [19.066873715461142, -1.3435110922713442]}}, {"type": "Feature", "properties": {"norad_id": 43001, "name": "BEIDOU-3 M1 (C19)", "group": "beidou", "lat": -30.685222022356037, "lon": -88.09127078567896, "alt_km": 21529.428088058135, "timestamp": "2025-12-25T11:37:44.700609+00:00", "meta": {"OBJECT_NAME": "BEIDOU-3 M1 (C19)", "OBJECT_ID": "2017-069A", "EPOCH": "2025-12-24T02:03:22.370112", "MEAN_MOTION": 1.86231021, "ECCENTRICITY": 0.00099255, "INCLINATION": 56.5356, "RA_OF_ASC_NODE": 68.8594, "ARG_OF_PERICENTER": 302.4524, "MEAN_ANOMALY": 57.5061, "EPHEMERIS_TYPE": 0, "CLASSIFICATION_TYPE": "U", "NORAD_CAT_ID": 43001, "ELEMENT_SET_NO": 999, "REV_AT_EPOCH": 5534, "BSTAR": 0, "MEAN_MOTION_DOT": -2.4e-07, "MEAN_MOTION_DDOT": 0}, "tle": {"line1": "1 43001U 17069A   25358.08567558 -.00000024  00000+0  00000+0 0  9993", "line2": "2 43001  56.5356  68.8594 0009925 302.4524  57.5061  1.86231021 55340"}}, "geometry": {"type": "Point", "coordinates": [-88.09127078567896, -30.685222022356037]}}, {"type": "Feature", "properties": {"norad_id": 43002, "name": "BEIDOU-3 M2 (C20)", "group": "beidou", "lat": -55.018100858519816, "lon": -40.39075582140092, "alt_km": 21527.134092352135, "timestamp": "2025-12-25T11:37:44.700621+00:00", "meta": {"OBJECT_NAME": "BEIDOU-3 M2 (C20)", "OBJECT_ID": "2017-069B", "EPOCH": "2025-12-25T02:21:04.022208", "MEAN_MOTION": 1.86231058, "ECCENTRICITY": 0.0006739, "INCLINATION": 56.5361, "RA_OF_ASC_NODE": 68.8616, "ARG_OF_PERICENTER": 327.75, "MEAN_ANOMALY": 32.2629, "EPHEMERIS_TYPE": 0, "CLASSIFICATION_TYPE": "U", "NORAD_CAT_ID": 43002, "ELEMENT_SET_NO": 999, "REV_AT_EPOCH": 5535, "BSTAR": 0, "MEAN_MOTION_DOT": -2.5e-07, "MEAN_MOTION_DDOT": 0}, "tle": {"line1": "1 43002U 17069B   25359.09796322 -.00000025  00000+0  00000+0 0  9990", "line2": "2 43002  56.5361  68.8616 0006739 327.7500  32.2629  1.86231058 55357"}}, "geometry": {"type": "Point", "coordinates": [-40.39075582140092, -55.018100858519816]}}, {"type": "Feature", "properties": {"norad_id": 43107, "name": "BEIDOU-3 M7 (C27)", "group": "beidou", "lat": 50.594176019425035, "lon": 8.619380807616531, "alt_km": 21513.68617349472, "timestamp": "2025-12-25T11:37:44.700632+00:00", "meta": {"OBJECT_NAME": "BEIDOU-3 M7 (C27)", "OBJECT_ID": "2018-003A", "EPOCH": "2025-12-23T05:31:08.538816", "MEAN_MOTION": 1.86232625, "ECCENTRICITY": 0.0002961, "INCLINATION": 54.4874, "RA_OF_ASC_NODE": 308.4506, "ARG_OF_PERICENTER": 66.5422, "MEAN_ANOMALY": 293.4915, "EPHEMERIS_TYPE": 0, "CLASSIFICATION_TYPE": "U", "NORAD_CAT_ID": 43107, "ELEMENT_SET_NO": 999, "REV_AT_EPOCH": 5407, "BSTAR": 0, "MEAN_MOTION_DOT": -5.5e-07, "MEAN_MOTION_DDOT": 0}, "tle": {"line1": "1 43107U 18003A   25357.22995994 -.00000055  00000+0  00000+0 0  9997", "line2": "2 43107  54.4874 308.4506 0002961  66.5422 293.4915  1.86232625 54072"}}, "geometry": {"type": "Point", "coordinates": [8.619380807616531, 50.594176019425035]}}]}